{
  "type": "FeatureCollection",
  "features": [
    {
      "type": "Feature",
      "properties": {
        "norad_id": 63772,
        "name": "BIOMASS",
        "group": "resource",
        "lat": -32.16980084700877,
        "lon": 178.95986951254724,
        "alt_km": 675.2650575222369,
        "timestamp": "2025-12-14T20:40:31.425829+00:00",
        "meta_object_name": "BIOMASS",
        "meta_object_id": "2025-090A",
        "meta_epoch": "2025-12-14T02:49:23.983680",
        "meta_mean_motion": 14.67544972,
        "meta_eccentricity": 0.00011481,
        "meta_inclination": 98.07,
        "meta_ra_of_asc_node": 173.1071,
        "meta_arg_of_pericenter": 78.5565,
        "meta_mean_anomaly": 281.5769,
        "meta_ephemeris_type": 0,
        "meta_classification_type": "U",
        "meta_norad_cat_id": 63772,
        "meta_element_set_no": 999,
        "meta_rev_at_epoch": 3354,
        "meta_bstar": 0.00033823395,
        "meta_mean_motion_dot": 1.871e-05,
        "meta_mean_motion_ddot": 0,
        "tle_line1": "1 63772U 25090A   25348.11763870  .00001871  00000+0  33823-3 0  9994",
        "tle_line2": "2 63772  98.0700 173.1071 0001148  78.5565 281.5769 14.67544972 33543"
      },
      "geometry": {
        "type": "Point",
        "coordinates": [
          178.95986951254724,
          -32.16980084700877
        ]
      }
    },
    {
      "type": "Feature",
      "properties": {
        "norad_id": 64694,
        "name": "GOSAT-GW (IBUKI GW)",
        "group": "resource",
        "lat": 2.6070259601906804,
        "lon": 104.70465566426132,
        "alt_km": 671.5944644653282,
        "timestamp": "2025-12-14T20:40:31.425839+00:00",
        "meta_object_name": "GOSAT-GW (IBUKI GW)",
        "meta_object_id": "2025-141A",
        "meta_epoch": "2025-12-14T08:24:57.640896",
        "meta_mean_motion": 14.67561879,
        "meta_eccentricity": 0.00014688,
        "meta_inclination": 98.0426,
        "meta_ra_of_asc_node": 283.8343,
        "meta_arg_of_pericenter": 84.2296,
        "meta_mean_anomaly": 275.9076,
        "meta_ephemeris_type": 0,
        "meta_classification_type": "U",
        "meta_norad_cat_id": 64694,
        "meta_element_set_no": 999,
        "meta_rev_at_epoch": 2473,
        "meta_bstar": 0.00025818184,
        "meta_mean_motion_dot": 1.417e-05,
        "meta_mean_motion_ddot": 0,
        "tle_line1": "1 64694U 25141A   25348.35066714  .00001417  00000+0  25818-3 0  9995",
        "tle_line2": "2 64694  98.0426 283.8343 0001468  84.2296 275.9076 14.67561879 24737"
      },
      "geometry": {
        "type": "Point",
        "coordinates": [
          104.70465566426132,
          2.6070259601906804
        ]
      }
    },
    {
      "type": "Feature",
      "properties": {
        "norad_id": 64876,
        "name": "IONOSFERA-M 3",
        "group": "resource",
        "lat": -8.044749501890395,
        "lon": 129.44497204477827,
        "alt_km": 825.4472150260926,
        "timestamp": "2025-12-14T20:40:31.425849+00:00",
        "meta_object_name": "IONOSFERA-M 3",
        "meta_object_id": "2025-155A",
        "meta_epoch": "2025-12-14T07:58:05.275200",
        "meta_mean_motion": 14.21441508,
        "meta_eccentricity": 0.00022011,
        "meta_inclination": 98.5784,
        "meta_ra_of_asc_node": 310.153,
        "meta_arg_of_pericenter": 57.6553,
        "meta_mean_anomaly": 302.4837,
        "meta_ephemeris_type": 0,
        "meta_classification_type": "U",
        "meta_norad_cat_id": 64876,
        "meta_element_set_no": 999,
        "meta_rev_at_epoch": 2014,
        "meta_bstar": 7.4490219e-05,
        "meta_mean_motion_dot": 1.2e-06,
        "meta_mean_motion_ddot": 0,
        "tle_line1": "1 64876U 25155A   25348.33200550  .00000120  00000+0  74490-4 0  9999",
        "tle_line2": "2 64876  98.5784 310.1530 0002201  57.6553 302.4837 14.21441508 20147"
      },
      "geometry": {
        "type": "Point",
        "coordinates": [
          129.44497204477827,
          -8.044749501890395
        ]
      }
    },
    {
      "type": "Feature",
      "properties": {
        "norad_id": 64877,
        "name": "IONOSFERA-M 4",
        "group": "resource",
        "lat": 8.439342035462818,
        "lon": -50.69631335920566,
        "alt_km": 821.5334062177708,
        "timestamp": "2025-12-14T20:40:31.425859+00:00",
        "meta_object_name": "IONOSFERA-M 4",
        "meta_object_id": "2025-155B",
        "meta_epoch": "2025-12-14T08:48:34.875648",
        "meta_mean_motion": 14.21442676,
        "meta_eccentricity": 0.00015745,
        "meta_inclination": 98.5783,
        "meta_ra_of_asc_node": 310.1066,
        "meta_arg_of_pericenter": 61.8925,
        "meta_mean_anomaly": 298.2412,
        "meta_ephemeris_type": 0,
        "meta_classification_type": "U",
        "meta_norad_cat_id": 64877,
        "meta_element_set_no": 999,
        "meta_rev_at_epoch": 2014,
        "meta_bstar": 7.7210408e-05,
        "meta_mean_motion_dot": 1.26e-06,
        "meta_mean_motion_ddot": 0,
        "tle_line1": "1 64877U 25155B   25348.36707032  .00000126  00000+0  77210-4 0  9999",
        "tle_line2": "2 64877  98.5783 310.1066 0001574  61.8925 298.2412 14.21442676 20141"
      },
      "geometry": {
        "type": "Point",
        "coordinates": [
          -50.69631335920566,
          8.439342035462818
        ]
      }
    },
    {
      "type": "Feature",
      "properties": {
        "norad_id": 64899,
        "name": "MICROCARB",
        "group": "resource",
        "lat": -9.410532868733977,
        "lon": -117.16321907648944,
        "alt_km": 651.0398095983919,
        "timestamp": "2025-12-14T20:40:31.425869+00:00",
        "meta_object_name": "MICROCARB",
        "meta_object_id": "2025-156A",
        "meta_epoch": "2025-12-14T05:08:12.687936",
        "meta_mean_motion": 14.72060033,
        "meta_eccentricity": 0.00172225,
        "meta_inclination": 98.0025,
        "meta_ra_of_asc_node": 63.5358,
        "meta_arg_of_pericenter": 140.2457,
        "meta_mean_anomaly": 220.0016,
        "meta_ephemeris_type": 0,
        "meta_classification_type": "U",
        "meta_norad_cat_id": 64899,
        "meta_element_set_no": 999,
        "meta_rev_at_epoch": 2075,
        "meta_bstar": 0.00016488559,
        "meta_mean_motion_dot": 9.89e-06,
        "meta_mean_motion_ddot": 0,
        "tle_line1": "1 64899U 25156A   25348.21403574  .00000989  00000+0  16489-3 0  9999",
        "tle_line2": "2 64899  98.0025  63.5358 0017222 140.2457 220.0016 14.72060033 20750"
      },
      "geometry": {
        "type": "Point",
        "coordinates": [
          -117.16321907648944,
          -9.410532868733977
        ]
      }
    },
    {
      "type": "Feature",
      "properties": {
        "norad_id": 64900,
        "name": "CO3D 3",
        "group": "resource",
        "lat": -57.168956954709465,
        "lon": -126.4779671491007,
        "alt_km": 513.1444756379105,
        "timestamp": "2025-12-14T20:40:31.425880+00:00",
        "meta_object_name": "CO3D 3",
        "meta_object_id": "2025-156B",
        "meta_epoch": "2025-12-13T16:46:35.865408",
        "meta_mean_motion": 15.2020033,
        "meta_eccentricity": 0.00013843,
        "meta_inclination": 97.4344,
        "meta_ra_of_asc_node": 64.0523,
        "meta_arg_of_pericenter": 93.9049,
        "meta_mean_anomaly": 266.2345,
        "meta_ephemeris_type": 0,
        "meta_classification_type": "U",
        "meta_norad_cat_id": 64900,
        "meta_element_set_no": 999,
        "meta_rev_at_epoch": 2135,
        "meta_bstar": 0.00015817929,
        "meta_mean_motion_dot": 3.358e-05,
        "meta_mean_motion_ddot": 0,
        "tle_line1": "1 64900U 25156B   25347.69902622  .00003358  00000+0  15818-3 0  9999",
        "tle_line2": "2 64900  97.4344  64.0523 0001384  93.9049 266.2345 15.20200330 21357"
      },
      "geometry": {
        "type": "Point",
        "coordinates": [
          -126.4779671491007,
          -57.168956954709465
        ]
      }
    },
    {
      "type": "Feature",
      "properties": {
        "norad_id": 64901,
        "name": "CO3D 4",
        "group": "resource",
        "lat": -56.554350259626524,
        "lon": -126.20294054116034,
        "alt_km": 511.6046692082373,
        "timestamp": "2025-12-14T20:40:31.425890+00:00",
        "meta_object_name": "CO3D 4",
        "meta_object_id": "2025-156C",
        "meta_epoch": "2025-12-12T15:30:13.261248",
        "meta_mean_motion": 15.20210943,
        "meta_eccentricity": 0.00010187,
        "meta_inclination": 97.4314,
        "meta_ra_of_asc_node": 63.0114,
        "meta_arg_of_pericenter": 237.4062,
        "meta_mean_anomaly": 122.7075,
        "meta_ephemeris_type": 0,
        "meta_classification_type": "U",
        "meta_norad_cat_id": 64901,
        "meta_element_set_no": 999,
        "meta_rev_at_epoch": 2119,
        "meta_bstar": 5.204221e-05,
        "meta_mean_motion_dot": 1.059e-05,
        "meta_mean_motion_ddot": 0,
        "tle_line1": "1 64901U 25156C   25346.64598682  .00001059  00000+0  52042-4 0  9998",
        "tle_line2": "2 64901  97.4314  63.0114 0001018 237.4062 122.7075 15.20210943 21193"
      },
      "geometry": {
        "type": "Point",
        "coordinates": [
          -126.20294054116034,
          -56.554350259626524
        ]
      }
    }
  ]
}